NORAD_CAT_ID,OBJECT_NAME,OBJECT_TYPE,EPOCH,MEAN_MOTION,ECCENTRICITY,INCLINATION,RA_OF_ASC_NODE,ARG_OF_PERICENTER,MEAN_ANOMALY,BSTAR,MEAN_MOTION_DOT,MEAN_MOTION_DDOT,TLE_LINE0,TLE_LINE1,TLE_LINE2,SEMIMAJOR_AXIS,PERIOD,APOGEE,PERIGEE,DECAYED
52856.0,STARLINK-4201,PAYLOAD,2022-09-18 14:00:01,15.08810083,0.0001891,53.2133,316.869,42.4523,269.5562,0.002961,0.00047113,0.0,0 STARLINK-4201,1 52856U 22062AC  22261.58335648  .00047113  00000-0  29610-2 0  9999,2 52856  53.2133 316.8690 0001891  42.4523 269.5562 15.08810083  1300,6917.972,95.439,541.145,538.529,0.0
52856.0,STARLINK-4201,PAYLOAD,2022-09-18 22:00:00,15.08834766,0.0001724,53.2131,315.371,46.4744,277.0577,0.00072524,0.00011271,0.0,0 STARLINK-4201,1 52856U 22062AC  22261.91667824  .00011271  00000-0  72524-3 0  9999,2 52856  53.2131 315.3710 0001724  46.4744 277.0577 15.08834766 15027,6917.896,95.438,540.9540000000002,538.569,0.0
52856.0,STARLINK-4201,PAYLOAD,2022-09-19 14:00:01,15.08847699,0.0001867,53.2133,312.3797,42.0128,304.7251,0.00017213,2.453e-05,0.0,0 STARLINK-4201,1 52856U 22062AC  22262.58334491  .00002453  00000-0  17213-3 0  9990,2 52856  53.2133 312.3797 0001867  42.0128 304.7251 15.08847699  1309,6917.857,95.437,541.013,538.43,0.0
52856.0,STARLINK-4201,PAYLOAD,2022-09-19 22:00:00,15.08822473,0.0001672,53.2138,310.8815,45.0064,313.3456,0.0012323,0.00019369,0.0,0 STARLINK-4201,1 52856U 22062AC  22262.91667824  .00019369  00000-0  12323-2 0  9996,2 52856  53.2138 310.8815 0001672  45.0064 313.3456 15.08822473  1300,6917.934,95.439,540.956,538.6419999999998,0.0
52856.0,STARLINK-4201,PAYLOAD,2022-09-20 06:00:00,15.08858092,0.0001713,53.2146,309.3856,45.8304,324.1008,-0.0011425,-0.00018434,0.0,0 STARLINK-4201,1 52856U 22062AC  22263.25001157 -.00018434  00000-0 -11425-2 0  9991,2 52856  53.2146 309.3856 0001713  45.8304 324.1008 15.08858092 15223,6917.825,95.436,540.875,538.505,0.0
52856.0,STARLINK-4201,PAYLOAD,2022-09-20 14:00:01,15.08836791,0.0001841,53.2143,307.8904,39.0127,342.5236,0.00040537,6.169e-05,0.0,0 STARLINK-4201,1 52856U 22062AC  22263.58334491  .00006169  00000-0  40537-3 0  9994,2 52856  53.2143 307.8904 0001841  39.0127 342.5236 15.08836791  1300,6917.89,95.438,541.029,538.482,0.0
52856.0,STARLINK-4201,PAYLOAD,2022-09-20 22:00:01,15.088111800000002,0.0001635,53.2142,306.3922,41.7631,351.4428,0.0017242,0.00027238,0.0,0 STARLINK-4201,1 52856U 22062AC  22263.91668981  .00027238  00000-0  17242-2 0  9991,2 52856  53.2142 306.3922 0001635  41.7631 351.4428 15.08811180  1301,6917.968000000003,95.439,540.965,538.702,0.0
52856.0,STARLINK-4201,PAYLOAD,2022-09-21 08:00:01,15.08844712,0.0001818,53.214,304.5228,41.7888,95.822,-0.001389,-0.00022329,0.0,0 STARLINK-4201,1 52856U 22062AC  22264.33334491 -.00022329  00000-0 -13890-2 0  9997,2 52856  53.2140 304.5228 0001818  41.7888  95.8220 15.08844712 15395,6917.866,95.437,540.989,538.4730000000002,0.0
52856.0,STARLINK-4201,PAYLOAD,2022-09-21 22:00:00,15.08799756,0.0001811999999999,53.2142,301.903,44.777,23.1226,0.0021287,0.00033716,0.0,0 STARLINK-4201,1 52856U 22062AC  22264.91667824  .00033716  00000-0  21287-2 0  9999,2 52856  53.2142 301.9030 0001812  44.7770  23.1226 15.08799756  1309,6918.003000000002,95.44,541.122,538.615,0.0
52856.0,STARLINK-4201,PAYLOAD,2022-09-22 06:00:00,15.08839866,0.000194,53.2141,300.4073,45.5174,33.9386,-0.0016952999999999,-0.00027168,0.0,0 STARLINK-4201,1 52856U 22062AC  22265.25001157 -.00027168  00000-0 -16953-2 0  9998,2 52856  53.2141 300.4073 0001940  45.5174  33.9386 15.08839866 15520,6917.880999999999,95.438,541.0880000000002,538.404,0.0
52856.0,STARLINK-4201,PAYLOAD,2022-09-22 14:00:01,15.08811024,0.0002078,53.214,298.9119,40.6537,50.3883,0.0026308,0.00041797,0.0,0 STARLINK-4201,1 52856U 22062AC  22265.58334491  .00041797  00000-0  26308-2 0  9991,2 52856  53.2140 298.9119 0002078  40.6537  50.3883 15.08811024  1305,6917.969,95.439,541.2719999999998,538.396,0.0
52856.0,STARLINK-4201,PAYLOAD,2022-09-22 22:00:00,15.08815279,0.0001911,53.2142,297.4137,45.1901,57.4385,0.0024019,0.0003812,0.0,0 STARLINK-4201,1 52856U 22062AC  22265.91667824  .00038120  00000-0  24019-2 0  9990,2 52856  53.2142 297.4137 0001911  45.1901  57.4385 15.08815279  1302,6917.956,95.439,541.143,538.499,0.0
52856.0,STARLINK-4201,PAYLOAD,2022-09-23 14:00:01,15.08833848,0.0002171,53.214,294.4224,41.4529,84.359,0.0023211,0.0003683999999999,0.0,0 STARLINK-4201,1 52856U 22062AC  22266.58334491  .00036840  00000-0  23211-2 0  9995,2 52856  53.2140 294.4224 0002171  41.4529  84.3590 15.08833848 15739,6917.899,95.438,541.266,538.262,0.0
52856.0,STARLINK-4201,PAYLOAD,2022-09-23 22:00:00,15.08843725,0.0001961,53.2142,292.9242,45.5595,91.8622,0.00070648,0.00010975,0.0,0 STARLINK-4201,1 52856U 22062AC  22266.91667824  .00010975  00000-0  70648-3 0  9999,2 52856  53.2142 292.9242 0001961  45.5595  91.8622 15.08843725  1300,6917.869000000002,95.437,541.091,538.377,0.0
52856.0,STARLINK-4201,PAYLOAD,2022-09-24 06:00:00,15.08855714,0.0002029999999999,53.2142,291.4286,44.2477,104.7801,-0.0019088,-0.00030552,0.0,0 STARLINK-4201,1 52856U 22062AC  22267.25001157 -.00030552  00000-0 -19088-2 0  9993,2 52856  53.2142 291.4286 0002030  44.2477 104.7801 15.08855714 15832,6917.831999999999,95.437,541.102,538.293,0.0
52856.0,STARLINK-4201,PAYLOAD,2022-09-24 14:00:01,15.08834435,0.0002133999999999,53.2139,289.9326,40.3844,120.3074,0.0017661999999999,0.00027929,0.0,0 STARLINK-4201,1 52856U 22062AC  22267.58335648  .00027929  00000-0  17662-2 0  9992,2 52856  53.2139 289.9326 0002134  40.3844 120.3074 15.08834435  1305,6917.897,95.438,541.239,538.286,0.0
52856.0,STARLINK-4201,PAYLOAD,2022-09-24 22:00:00,15.08839747,0.0001896,53.214,288.4345,44.5166,127.7189,0.00013778,1.905e-05,0.0,0 STARLINK-4201,1 52856U 22062AC  22267.91667824  .00001905  00000-0  13778-3 0  9994,2 52856  53.2140 288.4345 0001896  44.5166 127.7189 15.08839747  1308,6917.880999999999,95.438,541.058,538.435,0.0
52856.0,STARLINK-4201,PAYLOAD,2022-09-25 14:00:01,15.08838089,0.0002068,53.2138,285.4429,40.0983,155.3306,0.001107,0.00017373,0.0,0 STARLINK-4201,1 52856U 22062AC  22268.58334491  .00017373  00000-0  11070-2 0  9997,2 52856  53.2138 285.4429 0002068  40.0983 155.3306 15.08838089  1301,6917.886,95.438,541.182,538.321,0.0
52856.0,STARLINK-4201,PAYLOAD,2022-09-25 22:00:01,15.08835362,0.0001819,53.2139,283.9445,44.4209,162.666,-0.00026204,-4.456e-05,0.0,0 STARLINK-4201,1 52856U 22062AC  22268.91668981 -.00004456  00000-0 -26204-3 0  9994,2 52856  53.2139 283.9445 0001819  44.4209 162.6660 15.08835362 16081,6917.895,95.438,541.018,538.501,0.0
52856.0,STARLINK-4201,PAYLOAD,2022-09-26 00:00:00,15.08835927,0.0001802,53.2142,283.5701,45.915,254.0063,-0.00043924,-7.271e-05,0.0,0 STARLINK-4201,1 52856U 22062AC  22269.00001157 -.00007271  00000-0 -43924-3 0  9997,2 52856  53.2142 283.5701 0001802  45.9150 254.0063 15.08835927  1308,6917.893,95.438,541.004,538.511,0.0
52856.0,STARLINK-4201,PAYLOAD,2022-09-26 14:00:01,15.08828258,0.0002000999999999,53.2132,280.9533,39.2447,190.9419,0.00010912,1.448e-05,0.0,0 STARLINK-4201,1 52856U 22062AC  22269.58334491  .00001448  00000-0  10912-3 0  9999,2 52856  53.2132 280.9533 0002001  39.2447 190.9419 15.08828258  1300,6917.916,95.438,541.1659999999998,538.3969999999998,0.0
52856.0,STARLINK-4201,PAYLOAD,2022-09-27 00:00:00,15.08821505,0.0001835,53.2134,279.081,46.3447,288.3218,0.0022206,0.00035212,0.0,0 STARLINK-4201,1 52856U 22062AC  22270.00001157  .00035212  00000-0  22206-2 0  9992,2 52856  53.2134 279.0810 0001835  46.3447 288.3218 15.08821505  1309,6917.937,95.439,541.071,538.5319999999998,0.0
52856.0,STARLINK-4201,PAYLOAD,2022-09-27 06:00:00,15.08844136,0.0001982,53.2132,277.96,43.2643,210.0911,-0.0010452,-0.00016886,0.0,0 STARLINK-4201,1 52856U 22062AC  22270.25001157 -.00016886  00000-0 -10452-2 0  9997,2 52856  53.2132 277.9600 0001982  43.2643 210.0911 15.08844136 16288,6917.868,95.437,541.104,538.362,0.0
52856.0,STARLINK-4201,PAYLOAD,2022-09-27 14:00:01,15.08852309,0.0002032,53.2129,276.4635,41.0535,223.8952,-0.00027118,-4.603e-05,0.0,0 STARLINK-4201,1 52856U 22062AC  22270.58334491 -.00004603  00000-0 -27118-3 0  9995,2 52856  53.2129 276.4635 0002032  41.0535 223.8952 15.08852309  1304,6917.843000000003,95.437,541.113,538.302,0.0
52856.0,STARLINK-4201,PAYLOAD,2022-09-27 22:00:01,15.08839139,0.000187,53.2129,274.9652,46.4506,230.1744,0.001674,0.00026454,0.0,0 STARLINK-4201,1 52856U 22062AC  22270.91668981  .00026454  00000-0  16740-2 0  9990,2 52856  53.2129 274.9652 0001870  46.4506 230.1744 15.08839139  1308,6917.8830000000025,95.438,541.0419999999998,538.4540000000002,0.0
52856.0,STARLINK-4201,PAYLOAD,2022-09-28 06:00:00,15.08840013,0.0001973,53.2131,273.4703,41.9452,246.2029,-0.00060722,-9.939e-05,0.0,0 STARLINK-4201,1 52856U 22062AC  22271.25001157 -.00009939  00000-0 -60722-3 0  9995,2 52856  53.2131 273.4703 0001973  41.9452 246.2029 15.08840013 16433,6917.88,95.438,541.11,538.38,0.0
52856.0,STARLINK-4201,PAYLOAD,2022-09-28 14:00:01,15.08864625,0.0001971,53.2129,271.9737,38.278,261.455,-0.0039703,-0.00062967,0.0,0 STARLINK-4201,1 52856U 22062AC  22271.58334491 -.00062967  00000-0 -39703-2 0  9995,2 52856  53.2129 271.9737 0001971  38.2780 261.4550 15.08864625  1304,6917.805,95.436,541.034,538.307,0.0
52856.0,STARLINK-4201,PAYLOAD,2022-09-28 22:00:00,15.08796362,0.000181,53.2131,270.4755,42.9943,268.3403,0.0032179,0.00051236,0.0,0 STARLINK-4201,1 52856U 22062AC  22271.91667824  .00051236  00000-0  32179-2 0  9996,2 52856  53.2131 270.4755 0001810  42.9943 268.3403 15.08796362  1301,6918.014,95.44,541.131,538.627,0.0
52856.0,STARLINK-4201,PAYLOAD,2022-09-29 14:00:01,15.08845909,0.0002031,53.2134,267.48400000000004,38.3182,296.1548,-0.0011511,-0.00018565,0.0,0 STARLINK-4201,1 52856U 22062AC  22272.58334491 -.00018565  00000-0 -11511-2 0  9998,2 52856  53.2134 267.4840 0002031  38.3182 296.1548 15.08845909  1306,6917.861999999999,95.437,541.132,538.322,0.0
